METHANESAT              
1 59101U 24043D   25204.91745526  .00002456  00000+0  22665-3 0  9991
2 59101  97.8052 330.8148 0011677  33.2954 326.8999 14.95529739 75545
GOSAT-GW (IBUKI GW)     
1 64694U 25141A   25204.62534601  .00000808  00000+0  15067-3 0  9999
2 64694  98.0258 142.8748 0001515  84.6265 275.5112 14.67574259  3657
GHGSAT-C1               
1 46278U 20061G   25204.60420004  .00017526  00000+0  29613-3 0  9999
2 46278  97.2500 278.5727 0002766 145.1730 214.9704 15.51668436272230
GHGSAT-C2               
1 47509U 21006DA  25204.73885122  .00006253  00000+0  20026-3 0  9991
2 47509  97.2658 252.7285 0004054 265.5024  94.5755 15.32728102249452
GHGSAT-C3               
1 52737U 22057F   25204.62291042  .00006438  00000+0  23311-3 0  9992
2 52737  97.6169 335.3106 0006450 191.9677 168.1410 15.28743379175249
GHGSAT-C4               
1 52746U 22057Q   25204.64115165  .00006669  00000+0  24138-3 0  9999
2 52746  97.6099 334.4865 0007037 177.8077 182.3195 15.28736609175259
GHGSAT-C5               
1 52744U 22057N   25204.65742479  .00006661  00000+0  24118-3 0  9992
2 52744  97.6257 336.5392 0007513 189.6320 170.4777 15.28722867175257
GHGSAT-C6               
1 56204U 23054AC  25204.65361013  .00011846  00000+0  27609-3 0  9995
2 56204  97.3282 105.8972 0010264 147.1622 213.0265 15.42352959127642
GHGSAT-C7               
1 56209U 23054AH  25204.66468293  .00009442  00000+0  22638-3 0  9995
2 56209  97.3243 105.4602 0010393 141.1378 219.0619 15.41561969127646
GHGSAT-C8               
1 56186U 23054J   25204.62846713  .00011515  00000+0  26849-3 0  9994
2 56186  97.3253 105.3577 0006990 160.6882 199.4632 15.42378061127629
SENTINEL-5P             
1 42969U 17064A   25204.80924407  .00000049  00000+0  44178-4 0  9995
2 42969  98.7586 144.8165 0001314  86.0587 274.0739 14.19533760402970
ENMAP                   
1 52159U 22033C   25204.62009728  .00000431  00000+0  71568-4 0  9997
2 52159  97.9784 286.5895 0001347  87.2141 272.9222 14.74965709178227
PRISMA                  
1 44072U 19015A   25204.63151648  .00000861  00000+0  11065-3 0  9990
2 44072  97.8743 279.1114 0001488  89.5882 270.5503 14.83686570343339
SENTINEL-2A             
1 40697U 15028A   25204.61332948  .00000116  00000+0  61055-4 0  9999
2 40697  98.5683 279.1792 0001178  93.8486 266.2831 14.30819526526740
SENTINEL-2B             
1 42063U 17013A   25204.60613844  .00000115  00000+0  60692-4 0  9995
2 42063  98.5686 279.1142 0001256  99.2209 260.9116 14.30821404437657
SENTINEL-2C             
1 60989U 24157A   25204.78120471  .00000105  00000+0  56815-4 0  9998
2 60989  98.5674 279.3610 0001199  97.4092 262.7227 14.30819966 46029
LANDSAT 8               
1 39084U 13008A   25205.19688196  .00000357  00000+0  89321-4 0  9999
2 39084  98.2240 275.2173 0001286  88.8745 271.2601 14.57108398661957
LANDSAT 9               
1 49260U 21088A   25205.09386583  .00000365  00000+0  91131-4 0  9998
2 49260  98.2261 275.1158 0001397  85.4949 274.6408 14.57105647203218
TANAGER-1               
1 60507U 24149AR  25204.80056228  .00013707  00000+0  30510-3 0  9991
2 60507  97.4001 289.6031 0009274 240.2043 119.8283 15.43706836 52379
